BEIDOU-2 IGSO-1         
1 36828U 10036A   25334.45572689 -.00000021  00000+0  00000+0 0  9992
2 36828  54.2835 164.7602 0051274 215.7273 320.8565  1.00279528 56103
BEIDOU-2 G4             
1 37210U 10057A   25334.82255922 -.00000090  00000+0  00000+0 0  9996
2 37210   3.1524  69.9666 0010748 187.5096 268.6675  1.00271583 55308
BEIDOU-2 IGSO-2         
1 37256U 10068A   25334.59440439 -.00000225  00000+0  00000+0 0  9991
2 37256  47.9109 274.3010 0049401 216.3834 260.0417  1.00290004 54800
BEIDOU-2 IGSO-3         
1 37384U 11013A   25333.87783674 -.00000194  00000+0  00000+0 0  9990
2 37384  62.1255  42.0418 0035665 186.0158 264.7363  1.00273417 53667
BEIDOU-2 IGSO-4         
1 37763U 11038A   25332.52607030  .00000085  00000+0  00000+0 0  9998
2 37763  54.5801 167.4746 0148632 230.1967 313.2933  1.00284857 52633
BEIDOU-2 IGSO-5         
1 37948U 11073A   25334.80903912 -.00000172  00000+0  00000+0 0  9991
2 37948  48.0444 274.0065 0110907 222.2680 317.1379  1.00293171 51147
BEIDOU-2 G5             
1 38091U 12008A   25334.87377954  .00000079  00000+0  00000+0 0  9993
2 38091   3.0770  70.7417 0012100 225.2694 147.2486  1.00271693 50387
BEIDOU-2 M3             
1 38250U 12018A   25334.51414529 -.00000050  00000+0  00000+0 0  9992
2 38250  55.9307 311.5688 0024550 273.3237  86.3938  1.86229735 92241
