{
  "type": "FeatureCollection",
  "features": [
    {
      "type": "Feature",
      "properties": {
        "norad_id": 36828,
        "name": "BEIDOU-2 IGSO-1 (C06)",
        "group": "beidou",
        "lat": NaN,
        "lon": NaN,
        "alt_km": NaN,
        "timestamp": "2025-12-01T03:12:44.527582+00:00",
        "meta": {
          "OBJECT_NAME": "BEIDOU-2 IGSO-1 (C06)",
          "OBJECT_ID": "2010-036A",
          "EPOCH": "2025-11-30T10:56:14.803296",
          "MEAN_MOTION": 1.00279528,
          "ECCENTRICITY": 0.00512749,
          "INCLINATION": 54.2835,
          "RA_OF_ASC_NODE": 164.7602,
          "ARG_OF_PERICENTER": 215.7273,
          "MEAN_ANOMALY": 320.8565,
          "EPHEMERIS_TYPE": 0,
          "CLASSIFICATION_TYPE": "U",
          "NORAD_CAT_ID": 36828,
          "ELEMENT_SET_NO": 999,
          "REV_AT_EPOCH": 5610,
          "BSTAR": 0,
          "MEAN_MOTION_DOT": -2.1e-07,
          "MEAN_MOTION_DDOT": 0
        }
      },
      "geometry": {
        "type": "Point",
        "coordinates": [
          NaN,
          NaN
        ]
      }
    },
    {
      "type": "Feature",
      "properties": {
        "norad_id": 37210,
        "name": "BEIDOU-2 G4 (C04)",
        "group": "beidou",
        "lat": NaN,
        "lon": NaN,
        "alt_km": NaN,
        "timestamp": "2025-12-01T03:12:44.528035+00:00",
        "meta": {
          "OBJECT_NAME": "BEIDOU-2 G4 (C04)",
          "OBJECT_ID": "2010-057A",
          "EPOCH": "2025-11-30T19:44:29.116608",
          "MEAN_MOTION": 1.00271583,
          "ECCENTRICITY": 0.0010748,
          "INCLINATION": 3.1524,
          "RA_OF_ASC_NODE": 69.9666,
          "ARG_OF_PERICENTER": 187.5096,
          "MEAN_ANOMALY": 268.6675,
          "EPHEMERIS_TYPE": 0,
          "CLASSIFICATION_TYPE": "U",
          "NORAD_CAT_ID": 37210,
          "ELEMENT_SET_NO": 999,
          "REV_AT_EPOCH": 5530,
          "BSTAR": 0,
          "MEAN_MOTION_DOT": -9e-07,
          "MEAN_MOTION_DDOT": 0
        }
      },
      "geometry": {
        "type": "Point",
        "coordinates": [
          NaN,
          NaN
        ]
      }
    },
    {
      "type": "Feature",
      "properties": {
        "norad_id": 37256,
        "name": "BEIDOU-2 IGSO-2 (C07)",
        "group": "beidou",
        "lat": NaN,
        "lon": NaN,
        "alt_km": NaN,
        "timestamp": "2025-12-01T03:12:44.528447+00:00",
        "meta": {
          "OBJECT_NAME": "BEIDOU-2 IGSO-2 (C07)",
          "OBJECT_ID": "2010-068A",
          "EPOCH": "2025-11-30T14:15:56.539296",
          "MEAN_MOTION": 1.00290004,
          "ECCENTRICITY": 0.0049401,
          "INCLINATION": 47.9109,
          "RA_OF_ASC_NODE": 274.301,
          "ARG_OF_PERICENTER": 216.3834,
          "MEAN_ANOMALY": 260.0417,
          "EPHEMERIS_TYPE": 0,
          "CLASSIFICATION_TYPE": "U",
          "NORAD_CAT_ID": 37256,
          "ELEMENT_SET_NO": 999,
          "REV_AT_EPOCH": 5480,
          "BSTAR": 0,
          "MEAN_MOTION_DOT": -2.25e-06,
          "MEAN_MOTION_DDOT": 0
        }
      },
      "geometry": {
        "type": "Point",
        "coordinates": [
          NaN,
          NaN
        ]
      }
    },
    {
      "type": "Feature",
      "properties": {
        "norad_id": 37384,
        "name": "BEIDOU-2 IGSO-3 (C08)",
        "group": "beidou",
        "lat": NaN,
        "lon": NaN,
        "alt_km": NaN,
        "timestamp": "2025-12-01T03:12:44.528864+00:00",
        "meta": {
          "OBJECT_NAME": "BEIDOU-2 IGSO-3 (C08)",
          "OBJECT_ID": "2011-013A",
          "EPOCH": "2025-11-29T21:04:05.094336",
          "MEAN_MOTION": 1.00273417,
          "ECCENTRICITY": 0.00356655,
          "INCLINATION": 62.1255,
          "RA_OF_ASC_NODE": 42.0418,
          "ARG_OF_PERICENTER": 186.0158,
          "MEAN_ANOMALY": 264.7363,
          "EPHEMERIS_TYPE": 0,
          "CLASSIFICATION_TYPE": "U",
          "NORAD_CAT_ID": 37384,
          "ELEMENT_SET_NO": 999,
          "REV_AT_EPOCH": 5366,
          "BSTAR": 0,
          "MEAN_MOTION_DOT": -1.94e-06,
          "MEAN_MOTION_DDOT": 0
        }
      },
      "geometry": {
        "type": "Point",
        "coordinates": [
          NaN,
          NaN
        ]
      }
    },
    {
      "type": "Feature",
      "properties": {
        "norad_id": 37763,
        "name": "BEIDOU-2 IGSO-4 (C09)",
        "group": "beidou",
        "lat": NaN,
        "lon": NaN,
        "alt_km": NaN,
        "timestamp": "2025-12-01T03:12:44.529286+00:00",
        "meta": {
          "OBJECT_NAME": "BEIDOU-2 IGSO-4 (C09)",
          "OBJECT_ID": "2011-038A",
          "EPOCH": "2025-11-28T12:37:32.473920",
          "MEAN_MOTION": 1.00284857,
          "ECCENTRICITY": 0.01486323,
          "INCLINATION": 54.5801,
          "RA_OF_ASC_NODE": 167.4746,
          "ARG_OF_PERICENTER": 230.1967,
          "MEAN_ANOMALY": 313.2933,
          "EPHEMERIS_TYPE": 0,
          "CLASSIFICATION_TYPE": "U",
          "NORAD_CAT_ID": 37763,
          "ELEMENT_SET_NO": 999,
          "REV_AT_EPOCH": 5263,
          "BSTAR": 0,
          "MEAN_MOTION_DOT": 8.5e-07,
          "MEAN_MOTION_DDOT": 0
        }
      },
      "geometry": {
        "type": "Point",
        "coordinates": [
          NaN,
          NaN
        ]
      }
    },
    {
      "type": "Feature",
      "properties": {
        "norad_id": 37948,
        "name": "BEIDOU-2 IGSO-5 (C10)",
        "group": "beidou",
        "lat": NaN,
        "lon": NaN,
        "alt_km": NaN,
        "timestamp": "2025-12-01T03:12:44.529704+00:00",
        "meta": {
          "OBJECT_NAME": "BEIDOU-2 IGSO-5 (C10)",
          "OBJECT_ID": "2011-073A",
          "EPOCH": "2025-11-30T19:25:00.979968",
          "MEAN_MOTION": 1.00293171,
          "ECCENTRICITY": 0.0110907,
          "INCLINATION": 48.0444,
          "RA_OF_ASC_NODE": 274.0065,
          "ARG_OF_PERICENTER": 222.268,
          "MEAN_ANOMALY": 317.1379,
          "EPHEMERIS_TYPE": 0,
          "CLASSIFICATION_TYPE": "U",
          "NORAD_CAT_ID": 37948,
          "ELEMENT_SET_NO": 999,
          "REV_AT_EPOCH": 5114,
          "BSTAR": 0,
          "MEAN_MOTION_DOT": -1.72e-06,
          "MEAN_MOTION_DDOT": 0
        }
      },
      "geometry": {
        "type": "Point",
        "coordinates": [
          NaN,
          NaN
        ]
      }
    },
    {
      "type": "Feature",
      "properties": {
        "norad_id": 38091,
        "name": "BEIDOU-2 G5 (C05)",
        "group": "beidou",
        "lat": NaN,
        "lon": NaN,
        "alt_km": NaN,
        "timestamp": "2025-12-01T03:12:44.530124+00:00",
        "meta": {
          "OBJECT_NAME": "BEIDOU-2 G5 (C05)",
          "OBJECT_ID": "2012-008A",
          "EPOCH": "2025-11-30T20:58:14.552256",
          "MEAN_MOTION": 1.00271693,
          "ECCENTRICITY": 0.00121,
          "INCLINATION": 3.077,
          "RA_OF_ASC_NODE": 70.7417,
          "ARG_OF_PERICENTER": 225.2694,
          "MEAN_ANOMALY": 147.2486,
          "EPHEMERIS_TYPE": 0,
          "CLASSIFICATION_TYPE": "U",
          "NORAD_CAT_ID": 38091,
          "ELEMENT_SET_NO": 999,
          "REV_AT_EPOCH": 5038,
          "BSTAR": 0,
          "MEAN_MOTION_DOT": 7.9e-07,
          "MEAN_MOTION_DDOT": 0
        }
      },
      "geometry": {
        "type": "Point",
        "coordinates": [
          NaN,
          NaN
        ]
      }
    },
    {
      "type": "Feature",
      "properties": {
        "norad_id": 38250,
        "name": "BEIDOU-2 M3 (C11)",
        "group": "beidou",
        "lat": NaN,
        "lon": NaN,
        "alt_km": NaN,
        "timestamp": "2025-12-01T03:12:44.530515+00:00",
        "meta": {
          "OBJECT_NAME": "BEIDOU-2 M3 (C11)",
          "OBJECT_ID": "2012-018A",
          "EPOCH": "2025-11-30T12:20:22.153056",
          "MEAN_MOTION": 1.86229735,
          "ECCENTRICITY": 0.002455,
          "INCLINATION": 55.9307,
          "RA_OF_ASC_NODE": 311.5688,
          "ARG_OF_PERICENTER": 273.3237,
          "MEAN_ANOMALY": 86.3938,
          "EPHEMERIS_TYPE": 0,
          "CLASSIFICATION_TYPE": "U",
          "NORAD_CAT_ID": 38250,
          "ELEMENT_SET_NO": 999,
          "REV_AT_EPOCH": 9224,
          "BSTAR": 0,
          "MEAN_MOTION_DOT": -5e-07,
          "MEAN_MOTION_DDOT": 0
        }
      },
      "geometry": {
        "type": "Point",
        "coordinates": [
          NaN,
          NaN
        ]
      }
    }
  ]
}